{"type":"FeatureCollection","features":[{"type":"Feature","geometry":{"type":"Polygon","coordinates":[[[38.7862535201347,-4.77923772162402,0.0],[38.778616228797,-4.80478290929653,0.0],[38.7833327228385,-4.80478442354593,0.0],[38.7802728968571,-4.81312441073205,0.0],[38.787307140289,-4.81313569051243,0.0],[38.7872613748196,-4.81530686103428,0.0],[38.7858094293641,-4.81530640573072,0.0],[38.7858093897615,-4.81543305814966,0.0],[38.7845378100806,-4.81543265685125,0.0],[38.7845739828371,-4.81511603724589,0.0],[38.7869097232222,-4.81510772578251,0.0],[38.786901236716,-4.81339791512443,0.0],[38.7847368663161,-4.81335200139659,0.0],[38.7841867149433,-4.81346943309704,0.0],[38.7841965693115,-4.81348914695593,0.0],[38.7841933739105,-4.81348987057611,0.0],[38.7841934108615,-4.81348994657929,0.0],[38.7841901884301,-4.81349059239012,0.0],[38.7835075180616,-4.8136274299055,0.0],[38.7835072336307,-4.81360571887645,0.0],[38.7833028645136,-4.81365913104688,0.0],[38.783338328218,-4.81558606834184,0.0],[38.7829415231759,-4.81558594192448,0.0],[38.7831401605368,-4.81484418397866,0.0],[38.7826893331954,-4.81467216747773,0.0],[38.7826789393561,-4.81469290620585,0.0],[38.7826787887603,-4.81469287630399,0.0],[38.7826787833306,-4.81469293510515,0.0],[38.7815799297847,-4.81501782138766,0.0],[38.7815438613232,-4.81504269339185,0.0],[38.7821751607497,-4.81497957490784,0.0],[38.7824905480399,-4.81577577657251,0.0],[38.7824813889603,-4.81621905705085,0.0],[38.7816517049831,-4.81621879138048,0.0],[38.7816692627817,-4.81772053250668,0.0],[38.7823456198142,-4.81777502880373,0.0],[38.7823460482691,-4.81642708558147,0.0],[38.7830494762325,-4.81642731018106,0.0],[38.7830490290956,-4.81783857965975,0.0],[38.7830580474216,-4.81783858253536,0.0],[38.7840861366241,-4.81783890957114,0.0],[38.7841484261445,-4.82049862980455,0.0],[38.782741561781,-4.82049818177236,0.0],[38.782723275124,-4.82128523003589,0.0],[38.7841662145925,-4.82128568963147,0.0],[38.7841755366529,-4.82128642446063,0.0],[38.7841761633328,-4.8206205867748,0.0],[38.7855719587954,-4.82062149425963,0.0],[38.7855707984486,-4.82136001765513,0.0],[38.7855716175306,-4.82137660033214,0.0],[38.7861141548125,-4.82137677122707,0.0],[38.7860599993013,-4.82152149979979,0.0],[38.7841210113996,-4.82163849266436,0.0],[38.7840306305572,-4.82226267931794,0.0],[38.7813882411206,-4.82227088125185,0.0],[38.7813783232391,-4.8250843698425,0.0],[38.7839305393278,-4.82507613976299,0.0],[38.7839313454489,-4.82252499914397,0.0],[38.7857981774432,-4.82244417060373,0.0],[38.7861772975711,-4.82133155808424,0.0],[38.7856181669032,-4.82130424220772,0.0],[38.7856099052584,-4.81888879717758,0.0],[38.7841579523655,-4.81888833801093,0.0],[38.7841492620586,-4.81784797620135,0.0],[38.7872154962955,-4.81783989546131,0.0],[38.7872154063205,-4.8181293867085,0.0],[38.7886042323558,-4.81812077306311,0.0],[38.7886040703268,-4.81864547598975,0.0],[38.7885769761889,-4.8187721200108,0.0],[38.7881261319179,-4.81853676806693,0.0],[38.7878825526884,-4.81880809023677,0.0],[38.7884054990571,-4.81918821042102,0.0],[38.7884507026319,-4.81882636036985,0.0],[38.7896950560158,-4.81940572884,0.0],[38.7897199868362,-4.81940413529936,0.0],[38.7900504419108,-4.81843050166702,0.0],[38.788692371473,-4.81811417018875,0.0],[38.7930608971493,-4.81811131989265,0.0],[38.7927827828282,-4.81926608145817,0.0],[38.7927973990576,-4.81930716835444,0.0],[38.7917413350894,-4.82231936501853,0.0],[38.7917232955544,-4.82232840609518,0.0],[38.7908299353823,-4.82409221936935,0.0],[38.7882563868479,-4.8347392703116,0.0],[38.7882383310894,-4.83479355240487,0.0],[38.7813488030847,-4.86085458548316,0.0],[38.7760186346096,-4.86086188290148,0.0],[38.7758371589378,-4.83682504053272,0.0],[38.7666652182297,-4.83698478331902,0.0],[38.7788575308781,-4.7835325151369,0.0],[38.7825638915031,-4.78348846824468,0.0],[38.7825736707711,-4.7810730266716,0.0],[38.7797150031589,-4.7811083005138,0.0],[38.7802747056473,-4.77923583217802,0.0],[38.7862535201347,-4.77923772162402,0.0]],[[38.7858462672246,-4.83535663656263,0.0],[38.7861004615095,-4.83599840911924,0.0],[38.7861504026754,-4.83596407856719,0.0],[38.786283632417,-4.83587120751195,0.0],[38.7862836675962,-4.8358711858112,0.0],[38.7863349525579,-4.83583382415365,0.0],[38.786335122139,-4.83583372198055,0.0],[38.7863350925081,-4.83583330582775,0.0],[38.7866239186507,-4.83509157582952,0.0],[38.7862270560682,-4.83522715157558,0.0],[38.7861983951302,-4.83523277856752,0.0],[38.7861983978273,-4.83523280570816,0.0],[38.7858462672246,-4.83535663656263,0.0]]]},"properties":{"layer":"Tanga area","name":"Tanga area","source":"tanga_boundary.kmz","polygonIndex":0}},{"type":"Feature","geometry":{"type":"Polygon","coordinates":[[[38.7875171498976,-4.80477669306945,0.0],[38.787235002582,-4.81310852816834,0.0],[38.7802909391822,-4.81310632335378,0.0],[38.7833507620024,-4.80477538267121,0.0],[38.7875171498976,-4.80477669306945,0.0]],[[38.7825372270429,-4.81077302120175,0.0],[38.7827625940065,-4.81105353774316,0.0],[38.7829071493031,-4.81022129645176,0.0],[38.7826275843097,-4.81022120733116,0.0],[38.7825372270429,-4.81077302120175,0.0]],[[38.7854858327701,-4.81191382788619,0.0],[38.7854586817529,-4.81222140383537,0.0],[38.7864867965034,-4.81211316763586,0.0],[38.78651403439,-4.81152514693784,0.0],[38.7854858327701,-4.81191382788619,0.0]]]},"properties":{"layer":"Tanga area","name":"Tanga area","source":"tanga_boundary.kmz","polygonIndex":0}},{"type":"Feature","geometry":{"type":"Polygon","coordinates":[[[38.7908482175154,-4.76395035554489,0.0],[38.8116787967425,-4.76449917047698,0.0],[38.7930683133203,-4.81810405229607,0.0],[38.7930683133203,-4.81810405229607,0.0],[38.7872334486083,-4.81811129914659,0.0],[38.7875171498976,-4.80477669306945,0.0],[38.7786252498658,-4.80477386562308,0.0],[38.7786252498658,-4.80477386562308,0.0],[38.7908482175154,-4.76395035554489,0.0]]]},"properties":{"layer":"Tanga area","name":"Tanga area","source":"tanga_boundary.kmz","polygonIndex":0}},{"type":"Feature","geometry":{"type":"Polygon","coordinates":[[[38.7801797487049,-4.779370191791159,0.0],[38.78018838452264,-4.779378860715195,0.0],[38.76668396308192,-4.837030232384159,0.0],[38.78762556104579,-4.837262438275779,0.0],[38.81149003204387,-4.764543021844131,0.0],[38.79082711631978,-4.764051744011782,0.0],[38.78639959033421,-4.779164169393445,0.0],[38.7801797487049,-4.779370191791159,0.0]]]},"properties":{"layer":"Project boundary","name":"0","source":"boundary.kmz","polygonIndex":0}}]}