{"type": "FeatureCollection", "features": [{"type": "Feature", "geometry": {"type": "Polygon", "coordinates": [[[38.8004168, -4.8145236], [38.800151, -4.8145716], [38.8001638, -4.814642], [38.8004296, -4.814594], [38.8004168, -4.8145236]]]}, "properties": {"osm_id": 494427510, "building": "school", "name": null, "levels": null, "height": null}}, {"type": "Feature", "geometry": {"type": "Polygon", "coordinates": [[[38.7787476, -4.8076055], [38.7787979, -4.807526], [38.7788705, -4.8075716], [38.7788202, -4.8076511], [38.7787476, -4.8076055]]]}, "properties": {"osm_id": 1164192695, "building": "school", "name": null, "levels": null, "height": null}}, {"type": "Feature", "geometry": {"type": "Polygon", "coordinates": [[[38.7787932, -4.8074184], [38.778936, -4.8074973], [38.7788952, -4.8075707], [38.7787524, -4.8074918], [38.7787932, -4.8074184]]]}, "properties": {"osm_id": 1164192696, "building": "school", "name": null, "levels": null, "height": null}}, {"type": "Feature", "geometry": {"type": "Polygon", "coordinates": [[[38.7790024, -4.8072745], [38.7790738, -4.8072352], [38.7791181, -4.807315], [38.7790467, -4.8073543], [38.7790024, -4.8072745]]]}, "properties": {"osm_id": 1164192697, "building": "school", "name": null, "levels": null, "height": null}}, {"type": "Feature", "geometry": {"type": "Polygon", "coordinates": [[[38.7787738, -4.8072848], [38.7789696, -4.8071899], [38.7790057, -4.8072639], [38.7788099, -4.8073588], [38.7787738, -4.8072848]]]}, "properties": {"osm_id": 1164192698, "building": "school", "name": null, "levels": null, "height": null}}, {"type": "Feature", "geometry": {"type": "Polygon", "coordinates": [[[38.8005942, -4.8143021], [38.8006419, -4.814222], [38.800729, -4.8142734], [38.8006814, -4.8143536], [38.8005942, -4.8143021]]]}, "properties": {"osm_id": 1164192740, "building": "school", "name": null, "levels": null, "height": null}}, {"type": "Feature", "geometry": {"type": "Polygon", "coordinates": [[[38.8003059, -4.8143349], [38.8004977, -4.814234], [38.8005337, -4.814302], [38.8003419, -4.8144029], [38.8003059, -4.8143349]]]}, "properties": {"osm_id": 1164192741, "building": "school", "name": null, "levels": null, "height": null}}, {"type": "Feature", "geometry": {"type": "Polygon", "coordinates": [[[38.8002033, -4.8143863], [38.8002992, -4.8143396], [38.8003345, -4.8144115], [38.8002386, -4.8144583], [38.8002033, -4.8143863]]]}, "properties": {"osm_id": 1164192742, "building": "school", "name": null, "levels": null, "height": null}}, {"type": "Feature", "geometry": {"type": "Polygon", "coordinates": [[[38.8117502, -4.8321592], [38.811781, -4.8320182], [38.8118553, -4.8320343], [38.8118245, -4.8321753], [38.8117502, -4.8321592]]]}, "properties": {"osm_id": 1164192780, "building": "school", "name": null, "levels": null, "height": null}}, {"type": "Feature", "geometry": {"type": "Polygon", "coordinates": [[[38.8116972, -4.832373], [38.8117348, -4.8322367], [38.8118009, -4.8322548], [38.8117633, -4.8323911], [38.8116972, -4.832373]]]}, "properties": {"osm_id": 1164192781, "building": "school", "name": null, "levels": null, "height": null}}, {"type": "Feature", "geometry": {"type": "Polygon", "coordinates": [[[38.8121096, -4.8327084], [38.8122282, -4.8323442], [38.8123079, -4.8323699], [38.8121892, -4.8327342], [38.8121096, -4.8327084]]]}, "properties": {"osm_id": 1164192782, "building": "school", "name": null, "levels": null, "height": null}}, {"type": "Feature", "geometry": {"type": "Polygon", "coordinates": [[[38.8119326, -4.8326697], [38.8122055, -4.8327625], [38.8121801, -4.8328366], [38.8119072, -4.8327438], [38.8119326, -4.8326697]]]}, "properties": {"osm_id": 1164192783, "building": "school", "name": null, "levels": null, "height": null}}, {"type": "Feature", "geometry": {"type": "Polygon", "coordinates": [[[38.762635, -4.796428], [38.762686, -4.796424], [38.762684, -4.796395], [38.762633, -4.796399], [38.762635, -4.796428]]]}, "properties": {"osm_id": 1247617571, "building": "yes", "name": null, "levels": null, "height": null}}, {"type": "Feature", "geometry": {"type": "Polygon", "coordinates": [[[38.7625524, -4.7966179], [38.7624879, -4.7965994], [38.762452, -4.7967243], [38.7625164, -4.7967427], [38.7625524, -4.7966179]]]}, "properties": {"osm_id": 1247617572, "building": "yes", "name": null, "levels": null, "height": null}}, {"type": "Feature", "geometry": {"type": "Polygon", "coordinates": [[[38.762748, -4.796354], [38.762799, -4.796365], [38.762804, -4.796338], [38.762753, -4.796328], [38.762748, -4.796354]]]}, "properties": {"osm_id": 1247617573, "building": "yes", "name": null, "levels": null, "height": null}}, {"type": "Feature", "geometry": {"type": "Polygon", "coordinates": [[[38.7626308, -4.7963315], [38.7627035, -4.7963526], [38.7627157, -4.7963108], [38.7626431, -4.7962897], [38.7626308, -4.7963315]]]}, "properties": {"osm_id": 1247617574, "building": "yes", "name": null, "levels": null, "height": null}}, {"type": "Feature", "geometry": {"type": "Polygon", "coordinates": [[[38.7627945, -4.7962792], [38.7627955, -4.7962418], [38.7627258, -4.7962399], [38.7627248, -4.7962773], [38.7627945, -4.7962792]]]}, "properties": {"osm_id": 1247617575, "building": "yes", "name": null, "levels": null, "height": null}}, {"type": "Feature", "geometry": {"type": "Polygon", "coordinates": [[[38.762801, -4.796281], [38.762873, -4.796283], [38.762874, -4.796233], [38.762802, -4.796231], [38.762801, -4.796281]]]}, "properties": {"osm_id": 1247617576, "building": "yes", "name": null, "levels": null, "height": null}}, {"type": "Feature", "geometry": {"type": "Polygon", "coordinates": [[[38.762878, -4.796128], [38.762917, -4.796127], [38.762916, -4.796072], [38.762877, -4.796073], [38.762878, -4.796128]]]}, "properties": {"osm_id": 1247617577, "building": "yes", "name": null, "levels": null, "height": null}}, {"type": "Feature", "geometry": {"type": "Polygon", "coordinates": [[[38.7626241, -4.7961496], [38.7626227, -4.7962164], [38.7626854, -4.7962177], [38.7626868, -4.796151], [38.7626241, -4.7961496]]]}, "properties": {"osm_id": 1247617578, "building": "yes", "name": null, "levels": null, "height": null}}, {"type": "Feature", "geometry": {"type": "Polygon", "coordinates": [[[38.7624583, -4.7962403], [38.7625252, -4.7962377], [38.7625236, -4.796195], [38.7624566, -4.7961976], [38.7624583, -4.7962403]]]}, "properties": {"osm_id": 1247617579, "building": "yes", "name": null, "levels": null, "height": null}}, {"type": "Feature", "geometry": {"type": "Polygon", "coordinates": [[[38.762561, -4.796105], [38.76257, -4.79614], [38.762628, -4.796126], [38.762619, -4.79609], [38.762561, -4.796105]]]}, "properties": {"osm_id": 1247617580, "building": "yes", "name": null, "levels": null, "height": null}}, {"type": "Feature", "geometry": {"type": "Polygon", "coordinates": [[[38.7625636, -4.7960905], [38.7626439, -4.7960869], [38.7626413, -4.7960282], [38.762561, -4.7960318], [38.7625636, -4.7960905]]]}, "properties": {"osm_id": 1247617581, "building": "yes", "name": null, "levels": null, "height": null}}, {"type": "Feature", "geometry": {"type": "Polygon", "coordinates": [[[38.762423, -4.7960531], [38.7625152, -4.7960373], [38.7625067, -4.795988], [38.7624145, -4.7960038], [38.762423, -4.7960531]]]}, "properties": {"osm_id": 1247617582, "building": "yes", "name": null, "levels": null, "height": null}}, {"type": "Feature", "geometry": {"type": "Polygon", "coordinates": [[[38.7627189, -4.7960141], [38.7627129, -4.7959722], [38.7626472, -4.7959815], [38.7626531, -4.7960234], [38.7627189, -4.7960141]]]}, "properties": {"osm_id": 1247617583, "building": "yes", "name": null, "levels": null, "height": null}}, {"type": "Feature", "geometry": {"type": "Polygon", "coordinates": [[[38.762829, -4.795946], [38.762837, -4.795973], [38.762883, -4.795961], [38.762876, -4.795933], [38.762829, -4.795946]]]}, "properties": {"osm_id": 1247618221, "building": "yes", "name": null, "levels": null, "height": null}}, {"type": "Feature", "geometry": {"type": "Polygon", "coordinates": [[[38.7628122, -4.7959271], [38.7628129, -4.7958897], [38.7627341, -4.7958883], [38.7627334, -4.7959257], [38.7628122, -4.7959271]]]}, "properties": {"osm_id": 1247618222, "building": "yes", "name": null, "levels": null, "height": null}}, {"type": "Feature", "geometry": {"type": "Polygon", "coordinates": [[[38.76289, -4.795812], [38.762829, -4.795818], [38.762833, -4.795856], [38.762894, -4.79585], [38.76289, -4.795812]]]}, "properties": {"osm_id": 1247618223, "building": "yes", "name": null, "levels": null, "height": null}}, {"type": "Feature", "geometry": {"type": "Polygon", "coordinates": [[[38.7624131, -4.7959077], [38.7624192, -4.795937], [38.7624758, -4.7959254], [38.7624697, -4.7958961], [38.7624131, -4.7959077]]]}, "properties": {"osm_id": 1247618224, "building": "yes", "name": null, "levels": null, "height": null}}, {"type": "Feature", "geometry": {"type": "Polygon", "coordinates": [[[38.762521, -4.795744], [38.762504, -4.79571], [38.762444, -4.79574], [38.762461, -4.795774], [38.762521, -4.795744]]]}, "properties": {"osm_id": 1247618225, "building": "yes", "name": null, "levels": null, "height": null}}, {"type": "Feature", "geometry": {"type": "Polygon", "coordinates": [[[38.7622513, -4.7958273], [38.762305, -4.7957771], [38.7622574, -4.7957265], [38.7622037, -4.7957767], [38.7622513, -4.7958273]]]}, "properties": {"osm_id": 1247618226, "building": "yes", "name": null, "levels": null, "height": null}}, {"type": "Feature", "geometry": {"type": "Polygon", "coordinates": [[[38.7624731, -4.7955836], [38.7625086, -4.7956267], [38.7625304, -4.7956088], [38.7624949, -4.7955657], [38.7624731, -4.7955836]]]}, "properties": {"osm_id": 1247618227, "building": "yes", "name": null, "levels": null, "height": null}}, {"type": "Feature", "geometry": {"type": "Polygon", "coordinates": [[[38.762801, -4.795626], [38.76275, -4.795646], [38.762769, -4.795695], [38.762792, -4.795686], [38.762812, -4.79574], [38.762841, -4.795729], [38.762801, -4.795626]]]}, "properties": {"osm_id": 1247618228, "building": "yes", "name": null, "levels": null, "height": null}}, {"type": "Feature", "geometry": {"type": "Polygon", "coordinates": [[[38.7627204, -4.7955802], [38.7627459, -4.795642], [38.7628262, -4.7956091], [38.7628008, -4.7955474], [38.7627204, -4.7955802]]]}, "properties": {"osm_id": 1247618229, "building": "yes", "name": null, "levels": null, "height": null}}, {"type": "Feature", "geometry": {"type": "Polygon", "coordinates": [[[38.762704, -4.795535], [38.762738, -4.795524], [38.762722, -4.795476], [38.762688, -4.795487], [38.762704, -4.795535]]]}, "properties": {"osm_id": 1247618230, "building": "yes", "name": null, "levels": null, "height": null}}, {"type": "Feature", "geometry": {"type": "Polygon", "coordinates": [[[38.762538, -4.7954041], [38.76249, -4.7954004], [38.7624848, -4.7954679], [38.7625328, -4.7954716], [38.762538, -4.7954041]]]}, "properties": {"osm_id": 1247618231, "building": "yes", "name": null, "levels": null, "height": null}}, {"type": "Feature", "geometry": {"type": "Polygon", "coordinates": [[[38.76277, -4.79547], [38.762842, -4.795448], [38.762822, -4.795383], [38.76275, -4.795405], [38.76277, -4.79547]]]}, "properties": {"osm_id": 1247618232, "building": "yes", "name": null, "levels": null, "height": null}}, {"type": "Feature", "geometry": {"type": "Polygon", "coordinates": [[[38.76286, -4.795378], [38.762883, -4.795259], [38.762809, -4.795245], [38.762795, -4.795321], [38.762805, -4.795323], [38.762797, -4.795366], [38.76286, -4.795378]]]}, "properties": {"osm_id": 1247618233, "building": "yes", "name": null, "levels": null, "height": null}}, {"type": "Feature", "geometry": {"type": "Polygon", "coordinates": [[[38.762663, -4.795237], [38.762701, -4.795259], [38.762739, -4.795196], [38.762702, -4.795173], [38.762663, -4.795237]]]}, "properties": {"osm_id": 1247618234, "building": "yes", "name": null, "levels": null, "height": null}}, {"type": "Feature", "geometry": {"type": "Polygon", "coordinates": [[[38.763, -4.795176], [38.763075, -4.795221], [38.76309, -4.795195], [38.763015, -4.79515], [38.763, -4.795176]]]}, "properties": {"osm_id": 1247618235, "building": "yes", "name": null, "levels": null, "height": null}}, {"type": "Feature", "geometry": {"type": "Polygon", "coordinates": [[[38.7630414, -4.7950495], [38.7630992, -4.7951018], [38.7631601, -4.7950352], [38.7631022, -4.7949828], [38.7630414, -4.7950495]]]}, "properties": {"osm_id": 1247618236, "building": "yes", "name": null, "levels": null, "height": null}}, {"type": "Feature", "geometry": {"type": "Polygon", "coordinates": [[[38.762745, -4.7950959], [38.762826, -4.79508], [38.7628031, -4.7949642], [38.7627221, -4.7949801], [38.762745, -4.7950959]]]}, "properties": {"osm_id": 1247618237, "building": "yes", "name": null, "levels": null, "height": null}}, {"type": "Feature", "geometry": {"type": "Polygon", "coordinates": [[[38.763369, -4.795135], [38.763318, -4.79512], [38.763309, -4.795152], [38.763359, -4.795167], [38.763369, -4.795135]]]}, "properties": {"osm_id": 1247618238, "building": "yes", "name": null, "levels": null, "height": null}}, {"type": "Feature", "geometry": {"type": "Polygon", "coordinates": [[[38.7633559, -4.7950934], [38.7634222, -4.7951436], [38.7634628, -4.7950903], [38.7633965, -4.7950401], [38.7633559, -4.7950934]]]}, "properties": {"osm_id": 1247618239, "building": "yes", "name": null, "levels": null, "height": null}}, {"type": "Feature", "geometry": {"type": "Polygon", "coordinates": [[[38.763338, -4.794994], [38.763399, -4.795013], [38.763408, -4.794986], [38.763347, -4.794967], [38.763338, -4.794994]]]}, "properties": {"osm_id": 1247618240, "building": "yes", "name": null, "levels": null, "height": null}}, {"type": "Feature", "geometry": {"type": "Polygon", "coordinates": [[[38.76361, -4.795056], [38.763715, -4.79509], [38.763726, -4.795054], [38.763621, -4.795021], [38.76361, -4.795056]]]}, "properties": {"osm_id": 1247618241, "building": "yes", "name": null, "levels": null, "height": null}}, {"type": "Feature", "geometry": {"type": "Polygon", "coordinates": [[[38.7635376, -4.7947603], [38.7634762, -4.7947418], [38.763462, -4.7947883], [38.7635234, -4.7948068], [38.7635376, -4.7947603]]]}, "properties": {"osm_id": 1247618242, "building": "yes", "name": null, "levels": null, "height": null}}, {"type": "Feature", "geometry": {"type": "Polygon", "coordinates": [[[38.7633339, -4.7947864], [38.7633234, -4.7948417], [38.763396, -4.7948553], [38.7634064, -4.7948], [38.7633339, -4.7947864]]]}, "properties": {"osm_id": 1247618243, "building": "yes", "name": null, "levels": null, "height": null}}, {"type": "Feature", "geometry": {"type": "Polygon", "coordinates": [[[38.7633032, -4.7947829], [38.7632466, -4.7947764], [38.7632397, -4.7948359], [38.7632963, -4.7948424], [38.7633032, -4.7947829]]]}, "properties": {"osm_id": 1247618244, "building": "yes", "name": null, "levels": null, "height": null}}, {"type": "Feature", "geometry": {"type": "Polygon", "coordinates": [[[38.7631546, -4.7948434], [38.7632157, -4.794855], [38.7632334, -4.7947621], [38.7631309, -4.7947427], [38.763119, -4.7948046], [38.7631605, -4.7948125], [38.7631546, -4.7948434]]]}, "properties": {"osm_id": 1247618245, "building": "yes", "name": null, "levels": null, "height": null}}, {"type": "Feature", "geometry": {"type": "Polygon", "coordinates": [[[38.763328, -4.794746], [38.76336, -4.794747], [38.763361, -4.794692], [38.763329, -4.794691], [38.763328, -4.794746]]]}, "properties": {"osm_id": 1247618246, "building": "yes", "name": null, "levels": null, "height": null}}, {"type": "Feature", "geometry": {"type": "Polygon", "coordinates": [[[38.763143, -4.794641], [38.763187, -4.794644], [38.76319, -4.79459], [38.763146, -4.794588], [38.763143, -4.794641]]]}, "properties": {"osm_id": 1247618247, "building": "yes", "name": null, "levels": null, "height": null}}, {"type": "Feature", "geometry": {"type": "Polygon", "coordinates": [[[38.763016, -4.794704], [38.763024, -4.79464], [38.762906, -4.794624], [38.762891, -4.79473], [38.762942, -4.794737], [38.762948, -4.794695], [38.763016, -4.794704]]]}, "properties": {"osm_id": 1247618248, "building": "yes", "name": null, "levels": null, "height": null}}, {"type": "Feature", "geometry": {"type": "Polygon", "coordinates": [[[38.763255, -4.794489], [38.763167, -4.794487], [38.763166, -4.794524], [38.763254, -4.794526], [38.763255, -4.794489]]]}, "properties": {"osm_id": 1247618250, "building": "yes", "name": null, "levels": null, "height": null}}, {"type": "Feature", "geometry": {"type": "Polygon", "coordinates": [[[38.763277, -4.794538], [38.763246, -4.794544], [38.763255, -4.79459], [38.763286, -4.794584], [38.763277, -4.794538]]]}, "properties": {"osm_id": 1247618251, "building": "yes", "name": null, "levels": null, "height": null}}, {"type": "Feature", "geometry": {"type": "Polygon", "coordinates": [[[38.763247, -4.794334], [38.76332, -4.794334], [38.76332, -4.794257], [38.763247, -4.794257], [38.763247, -4.794334]]]}, "properties": {"osm_id": 1247618252, "building": "yes", "name": null, "levels": null, "height": null}}, {"type": "Feature", "geometry": {"type": "Polygon", "coordinates": [[[38.763469, -4.794322], [38.763463, -4.794269], [38.763426, -4.794273], [38.763431, -4.794326], [38.763469, -4.794322]]]}, "properties": {"osm_id": 1247618253, "building": "yes", "name": null, "levels": null, "height": null}}, {"type": "Feature", "geometry": {"type": "Polygon", "coordinates": [[[38.76358, -4.794396], [38.76358, -4.794348], [38.763499, -4.794348], [38.763499, -4.794396], [38.76358, -4.794396]]]}, "properties": {"osm_id": 1247618254, "building": "yes", "name": null, "levels": null, "height": null}}, {"type": "Feature", "geometry": {"type": "Polygon", "coordinates": [[[38.763636, -4.794425], [38.763644, -4.794385], [38.763614, -4.794379], [38.763605, -4.794418], [38.763636, -4.794425]]]}, "properties": {"osm_id": 1247618255, "building": "yes", "name": null, "levels": null, "height": null}}, {"type": "Feature", "geometry": {"type": "Polygon", "coordinates": [[[38.763778, -4.794547], [38.76378, -4.794511], [38.763687, -4.794506], [38.763685, -4.794542], [38.763778, -4.794547]]]}, "properties": {"osm_id": 1247618256, "building": "yes", "name": null, "levels": null, "height": null}}, {"type": "Feature", "geometry": {"type": "Polygon", "coordinates": [[[38.76362, -4.794268], [38.76362, -4.794324], [38.763711, -4.794324], [38.763711, -4.794268], [38.76362, -4.794268]]]}, "properties": {"osm_id": 1247618257, "building": "yes", "name": null, "levels": null, "height": null}}, {"type": "Feature", "geometry": {"type": "Polygon", "coordinates": [[[38.7636162, -4.7941442], [38.7636939, -4.7941474], [38.7636961, -4.7940941], [38.7636185, -4.7940908], [38.7636162, -4.7941442]]]}, "properties": {"osm_id": 1247618258, "building": "yes", "name": null, "levels": null, "height": null}}, {"type": "Feature", "geometry": {"type": "Polygon", "coordinates": [[[38.763689, -4.79405], [38.763634, -4.794054], [38.763637, -4.794083], [38.763691, -4.794079], [38.763689, -4.79405]]]}, "properties": {"osm_id": 1247618259, "building": "yes", "name": null, "levels": null, "height": null}}, {"type": "Feature", "geometry": {"type": "Polygon", "coordinates": [[[38.757287, -4.802505], [38.757359, -4.802533], [38.757388, -4.802457], [38.757317, -4.80243], [38.757287, -4.802505]]]}, "properties": {"osm_id": 1247619507, "building": "yes", "name": null, "levels": null, "height": null}}, {"type": "Feature", "geometry": {"type": "Polygon", "coordinates": [[[38.756627, -4.803534], [38.75655, -4.803534], [38.75655, -4.803569], [38.756627, -4.803569], [38.756627, -4.803534]]]}, "properties": {"osm_id": 1247619523, "building": "yes", "name": null, "levels": null, "height": null}}, {"type": "Feature", "geometry": {"type": "Polygon", "coordinates": [[[38.756523, -4.803567], [38.756518, -4.803524], [38.756484, -4.803529], [38.756489, -4.803571], [38.756523, -4.803567]]]}, "properties": {"osm_id": 1247619524, "building": "yes", "name": null, "levels": null, "height": null}}, {"type": "Feature", "geometry": {"type": "Polygon", "coordinates": [[[38.756505, -4.803493], [38.756565, -4.803503], [38.75657, -4.803476], [38.75651, -4.803466], [38.756505, -4.803493]]]}, "properties": {"osm_id": 1247619527, "building": "yes", "name": null, "levels": null, "height": null}}]}