{"type": "FeatureCollection", "features": [{"type": "Feature", "geometry": {"type": "Point", "coordinates": [38.8131866, -4.8233041]}, "properties": {"osm_id": 4117134965, "name": "Magati", "kind": "poi", "class": "pharmacy", "priority": 8}}, {"type": "Feature", "geometry": {"type": "Point", "coordinates": [38.7736159, -4.8099653]}, "properties": {"osm_id": 4117213305, "name": "Kigongoi", "kind": "poi", "class": "pharmacy", "priority": 8}}, {"type": "Feature", "geometry": {"type": "Point", "coordinates": [38.8129225, -4.8271199]}, "properties": {"osm_id": 8038081967, "name": "Magati", "kind": "place", "class": "village", "priority": 10}}, {"type": "Feature", "geometry": {"type": "Point", "coordinates": [38.7731332, -4.8095222]}, "properties": {"osm_id": 8038081982, "name": "Vuga", "kind": "place", "class": "village", "priority": 10}}, {"type": "Feature", "geometry": {"type": "Point", "coordinates": [38.7858716, -4.8049321]}, "properties": {"osm_id": 9313468093, "name": "Kigongoi Secondary School", "kind": "poi", "class": "school", "priority": 8}}, {"type": "Feature", "geometry": {"type": "Point", "coordinates": [38.7721574, -4.8088183]}, "properties": {"osm_id": 9313468094, "name": "Kigongoi Primary School", "kind": "poi", "class": "school", "priority": 8}}, {"type": "Feature", "geometry": {"type": "Point", "coordinates": [38.8146409, -4.8176624]}, "properties": {"osm_id": 9842436818, "name": "Kibanda", "kind": "place", "class": "hamlet", "priority": 10}}, {"type": "Feature", "geometry": {"type": "Point", "coordinates": [38.8119233, -4.8323815]}, "properties": {"osm_id": 10827362903, "name": "Shule ya Msingi Magati", "kind": "poi", "class": "school", "priority": 8}}, {"type": "Feature", "geometry": {"type": "Point", "coordinates": [38.7789178, -4.8073678]}, "properties": {"osm_id": 10827362915, "name": "Shule ya Msingi Kigongoi", "kind": "poi", "class": "school", "priority": 8}}, {"type": "Feature", "geometry": {"type": "Point", "coordinates": [38.8004225, -4.8144308]}, "properties": {"osm_id": 10827362928, "name": "Shule ya Msingi Hemsambia", "kind": "poi", "class": "school", "priority": 8}}, {"type": "Feature", "geometry": {"type": "Point", "coordinates": [38.69067927612177, -5.000023684396655]}, "properties": {"osm_id": 606739925, "name": "East Usambara Mountains", "kind": "area", "class": "mountain_range", "priority": 5}}]}