{"type": "FeatureCollection", "features": [{"type": "Feature", "geometry": {"type": "LineString", "coordinates": [[38.7785158, -4.7994626], [38.77829, -4.7998889], [38.7782068, -4.8002323], [38.7782068, -4.8004692], [38.7783375, -4.8005876], [38.7785698, -4.8005815], [38.7786359, -4.8006805], [38.7785395, -4.8012508], [38.7784444, -4.8014758], [38.7783969, -4.8019021], [38.7782662, -4.802281], [38.7782781, -4.8025889], [38.7783256, -4.8027784], [38.7785514, -4.8030508], [38.7787059, -4.8031218], [38.7788604, -4.8031218], [38.7790574, -4.8030378], [38.7791339, -4.8028531], [38.7791875, -4.8025751], [38.7793109, -4.8022544], [38.7793753, -4.8019818], [38.7796087, -4.8016901], [38.7798824, -4.8015231], [38.7800725, -4.8014876], [38.780237, -4.8015464], [38.780362, -4.8017076], [38.7803838, -4.8018802], [38.7803052, -4.8022562], [38.7802186, -4.8025778], [38.7802282, -4.8031364], [38.7802278, -4.803544], [38.780214, -4.8038267], [38.7802746, -4.8039389], [38.7802765, -4.804275], [38.7802412, -4.8045238], [38.7803102, -4.8047205], [38.780528, -4.8050595], [38.7805823, -4.8057183], [38.7805662, -4.8060658], [38.7804134, -4.8062085], [38.7803517, -4.8064158], [38.7803815, -4.8065442], [38.7804106, -4.8066805], [38.780643, -4.8069587], [38.7809301, -4.8071967], [38.7811778, -4.8072548], [38.7812689, -4.8073487], [38.7812966, -4.8075271], [38.7813441, -4.8077758], [38.7814592, -4.8078858], [38.7816769, -4.8078942], [38.7818314, -4.8077521], [38.7821998, -4.8071127], [38.7825206, -4.80626], [38.7828534, -4.8058811], [38.7834119, -4.8056561], [38.7835427, -4.8056679], [38.7835902, -4.8057863], [38.7835783, -4.8066863], [38.783619, -4.806807], [38.7837419, -4.8068088], [38.783817, -4.8067554], [38.7838873, -4.8063666], [38.783994, -4.8061353], [38.7842094, -4.8059509], [38.7843929, -4.8056358], [38.7845197, -4.8055954], [38.7848863, -4.8056709], [38.7856194, -4.8057504], [38.7858754, -4.8058153], [38.7859628, -4.8058947], [38.7860329, -4.8062531], [38.7861809, -4.806414], [38.7861928, -4.8066745], [38.7862997, -4.8069587], [38.7864412, -4.8071282], [38.7865631, -4.8072796], [38.7866919, -4.8074442], [38.7867942, -4.807707], [38.7869342, -4.8077681], [38.787191, -4.8077403], [38.7872742, -4.8076219], [38.787405, -4.8072666], [38.7876545, -4.8069469], [38.7880471, -4.8066012], [38.7882219, -4.8064033], [38.7887478, -4.8055376], [38.7888429, -4.8054074], [38.7889736, -4.8053245], [38.7892351, -4.8054903], [38.7896273, -4.8058455], [38.7897944, -4.8059594], [38.7900788, -4.8059995], [38.7900907, -4.806864], [38.7899355, -4.8074412], [38.7898531, -4.807835], [38.7898412, -4.8082258], [38.7899481, -4.8083324], [38.7903403, -4.8085574], [38.7903878, -4.8086877], [38.7905181, -4.8099058], [38.7904116, -4.8100021], [38.7901026, -4.8101798], [38.7897699, -4.8105232], [38.789651, -4.8108192], [38.789651, -4.8110916], [38.7899125, -4.8114706], [38.7905186, -4.8116719], [38.7909464, -4.8119087], [38.7912868, -4.8125054], [38.7914455, -4.8126192], [38.7916812, -4.8126729], [38.7919327, -4.8126548], [38.7921229, -4.8125719], [38.7924081, -4.8121456], [38.7925423, -4.8120328], [38.7927382, -4.8120382], [38.7928775, -4.8121276], [38.7931687, -4.8125719], [38.7935727, -4.8129982], [38.7937629, -4.8130692], [38.7939343, -4.8130631], [38.794122, -4.8129989], [38.7943742, -4.8129883], [38.7945085, -4.8130153], [38.7945948, -4.8130929], [38.7945619, -4.8136832], [38.7946156, -4.8141696], [38.7946281, -4.8143012], [38.7945619, -4.8144957], [38.7944403, -4.8146679], [38.7943387, -4.8147538], [38.7942739, -4.8148692], [38.7942026, -4.8150824], [38.7941597, -4.8153605], [38.7942322, -4.8155335], [38.7947282, -4.8158987], [38.7950876, -4.8161902], [38.7953344, -4.8165537], [38.7954546, -4.8167096], [38.7956014, -4.8167326], [38.795785, -4.816698], [38.7959376, -4.8167284], [38.7960921, -4.8167758], [38.7962942, -4.8169534], [38.7964724, -4.8170363], [38.7968704, -4.8170073], [38.7970666, -4.8168705], [38.7972568, -4.8167876], [38.7974573, -4.8168446], [38.7976116, -4.8169675], [38.7976984, -4.817141], [38.7977975, -4.8172554], [38.7979044, -4.8172495], [38.7979995, -4.8171903], [38.7982125, -4.8170521], [38.798317, -4.8168954], [38.7984308, -4.8168304], [38.7986871, -4.8168049], [38.7988025, -4.8168713], [38.7989044, -4.8169622], [38.7989929, -4.8169649], [38.7990734, -4.816855], [38.799194, -4.8167225], [38.7993497, -4.8165559], [38.7995564, -4.8162007], [38.7997064, -4.8160053], [38.7999235, -4.8158324], [38.800513, -4.8144311], [38.8009943, -4.8142949], [38.801125, -4.8142179], [38.8012141, -4.8141054], [38.8013389, -4.8138034], [38.8014637, -4.8132469], [38.801434, -4.8128205], [38.8014756, -4.8126311], [38.8016063, -4.8124534], [38.8019806, -4.8122107], [38.8021945, -4.811885]]}, "properties": {"osm_id": 428842630, "highway": "unclassified", "name": null}}, {"type": "Feature", "geometry": {"type": "LineString", "coordinates": [[38.7785158, -4.7994626], [38.7787891, -4.7992376], [38.7791694, -4.7987047], [38.7795615, -4.7978283], [38.7795853, -4.7975915], [38.7795497, -4.7975441], [38.7793893, -4.7975334], [38.7793001, -4.7974612], [38.7793714, -4.7972125], [38.7795972, -4.7968454], [38.7799894, -4.7960283], [38.7804885, -4.7949033], [38.7806549, -4.794323], [38.7807856, -4.794098], [38.7808094, -4.7937546], [38.7807737, -4.7935296], [38.7807164, -4.793386], [38.7806949, -4.7931294], [38.7807725, -4.792019], [38.7807486, -4.7915792], [38.7808581, -4.7912321], [38.7808807, -4.7908887], [38.7807381, -4.7906637], [38.7807262, -4.7902966], [38.7806073, -4.7900716], [38.7806073, -4.789965], [38.7807729, -4.7897022], [38.7808746, -4.7891593], [38.7808895, -4.7887146], [38.7808017, -4.7882119], [38.7807952, -4.7879411], [38.7808549, -4.7875113], [38.7808592, -4.7870425], [38.7808247, -4.7868493], [38.7807143, -4.7865899], [38.7807024, -4.7864359], [38.7807378, -4.786287], [38.7808688, -4.7860333], [38.7807856, -4.7855477], [38.7807754, -4.7851323], [38.7808129, -4.7845442], [38.7807856, -4.7844227], [38.7806667, -4.784399], [38.7798418, -4.7846092], [38.7794343, -4.7846405], [38.7791218, -4.7847188], [38.779003, -4.7848727], [38.7789911, -4.7850148], [38.778896, -4.7850977], [38.7786296, -4.7851055], [38.7784831, -4.7851551], [38.7783256, -4.7852872], [38.778127, -4.7855179], [38.7780285, -4.7855359], [38.7780047, -4.785453], [38.7780998, -4.7852161], [38.7785158, -4.7845174], [38.7785395, -4.7840556], [38.7785039, -4.7836648], [38.7782543, -4.7831555], [38.7777908, -4.7824687], [38.7776423, -4.7822102], [38.7774054, -4.781764], [38.7772816, -4.7815622], [38.7770719, -4.7813605], [38.7768995, -4.7809173], [38.7768474, -4.7808135], [38.776745, -4.7806094], [38.7765787, -4.7799225], [38.776139, -4.7790343], [38.7746772, -4.7775185], [38.7738373, -4.7761523], [38.7736433, -4.7758368], [38.7736196, -4.7756473], [38.7736552, -4.7754578], [38.7744039, -4.7743801], [38.7746891, -4.7738946], [38.7748344, -4.7734032], [38.7749228, -4.7730883], [38.7750326, -4.7726644], [38.7750515, -4.7723773], [38.7750623, -4.7720138], [38.7750694, -4.7717274], [38.7750694, -4.7696193], [38.7749981, -4.7686482], [38.7748911, -4.7679377], [38.774808, -4.7663507], [38.7745703, -4.7639348], [38.7742732, -4.7618859], [38.7742494, -4.7613175], [38.7742969, -4.7607964], [38.7743682, -4.7605832], [38.7745911, -4.7603564], [38.7748807, -4.7601787], [38.7753094, -4.7599781], [38.7758931, -4.7598084], [38.776089, -4.7596831]]}, "properties": {"osm_id": 428842646, "highway": "unclassified", "name": null}}, {"type": "Feature", "geometry": {"type": "LineString", "coordinates": [[38.8231067, -4.7682956], [38.8228922, -4.7692891], [38.8224417, -4.771543], [38.8220797, -4.7728467], [38.8218657, -4.773759], [38.8211848, -4.7760455], [38.8209689, -4.7764889], [38.8203899, -4.7773454], [38.8186959, -4.7797988], [38.8183296, -4.7802737], [38.8178575, -4.7807335], [38.817364, -4.7812253], [38.8171743, -4.7815286], [38.8169439, -4.7831257], [38.8165933, -4.783755], [38.8162228, -4.7844934], [38.8161195, -4.7850314], [38.8160707, -4.7856302], [38.8161838, -4.7865282], [38.816285, -4.7871697], [38.8165379, -4.7886451], [38.816613, -4.7893935], [38.8166199, -4.7894163], [38.8167445, -4.7898302], [38.8173485, -4.7922717], [38.8180539, -4.7958628], [38.8181957, -4.796866], [38.818283, -4.7980786], [38.817923, -4.8012186], [38.8177657, -4.8021952], [38.8175679, -4.8031959], [38.8174975, -4.8036117], [38.8174707, -4.8040875], [38.817267, -4.8050907], [38.816915, -4.8068143], [38.816459, -4.8079289], [38.8162959, -4.8085403], [38.81621, -4.8090963], [38.8160267, -4.8097288], [38.8157541, -4.8108068], [38.8151781, -4.8123288], [38.815033, -4.813276], [38.8150391, -4.8142259], [38.8149557, -4.8149912], [38.8148385, -4.8162155], [38.8145638, -4.8175759], [38.8144237, -4.8179645], [38.8142613, -4.8183874], [38.8137184, -4.8190336], [38.8135845, -4.8193685], [38.8132941, -4.8213156], [38.8128424, -4.8234346]]}, "properties": {"osm_id": 428842647, "highway": "tertiary", "name": null}}, {"type": "Feature", "geometry": {"type": "LineString", "coordinates": [[38.7785158, -4.7994626], [38.7779929, -4.7996994], [38.7778859, -4.7997349], [38.7778265, -4.7999599], [38.7777767, -4.8001322], [38.7775413, -4.8003507], [38.7773155, -4.8005284], [38.777208, -4.800624], [38.7770793, -4.800902], [38.7767789, -4.8011586], [38.7766484, -4.8014069], [38.7765053, -4.8016129], [38.7763835, -4.8017592], [38.7763658, -4.8019978], [38.7764004, -4.8021271], [38.7763076, -4.8022352], [38.7760757, -4.8023444], [38.7760064, -4.802495], [38.775723, -4.80266], [38.775577, -4.8027459], [38.7754497, -4.8028139], [38.7754516, -4.8029453], [38.7754968, -4.8030456], [38.7756755, -4.8031929], [38.7758562, -4.8034892], [38.7759845, -4.8037376], [38.7760795, -4.8038324], [38.7765311, -4.8039626], [38.7766032, -4.8040597], [38.7765375, -4.8042376], [38.7764034, -4.8043873], [38.7761888, -4.8044461], [38.7758788, -4.8044921], [38.775723, -4.8044718], [38.7756161, -4.8045192], [38.7755329, -4.8046495], [38.7755923, -4.8047797], [38.7757275, -4.8048737], [38.7758426, -4.8050078], [38.7758859, -4.8051209], [38.7758338, -4.805255], [38.7755773, -4.8054778], [38.7753903, -4.8055613], [38.7751648, -4.805595], [38.7748547, -4.8058428], [38.7747186, -4.8061591], [38.7744096, -4.8063647], [38.7742898, -4.8064828], [38.774204, -4.8067661], [38.7742494, -4.8070061], [38.7741557, -4.8072739], [38.7739761, -4.8075863], [38.7740029, -4.8077831], [38.7738929, -4.8080008], [38.7736686, -4.8080482], [38.7735126, -4.8081429], [38.7734905, -4.8083323], [38.7733778, -4.8085034], [38.7733788, -4.8088335], [38.7731472, -4.809054], [38.772999, -4.8092912], [38.7728946, -4.80941], [38.7728517, -4.8096576], [38.7729659, -4.8097298], [38.773233, -4.8096901], [38.7734126, -4.8097279], [38.7736729, -4.8096794], [38.7739948, -4.8096954], [38.7742429, -4.8096751], [38.7745346, -4.809635], [38.7754862, -4.8090944], [38.7757349, -4.808889], [38.7759726, -4.8086877], [38.7761244, -4.8085942], [38.7763529, -4.8086166], [38.7768111, -4.8086637], [38.7772798, -4.8086166], [38.7776245, -4.8084034], [38.7779097, -4.8080956], [38.7781236, -4.8079298], [38.7785276, -4.8078942], [38.7786584, -4.807835], [38.7787923, -4.8076694]]}, "properties": {"osm_id": 428842662, "highway": "unclassified", "name": null}}, {"type": "Feature", "geometry": {"type": "LineString", "coordinates": [[38.8128424, -4.8234346], [38.8128161, -4.8240713], [38.8128358, -4.8253091], [38.8128358, -4.8268272], [38.8127979, -4.8272208], [38.8126105, -4.8279069], [38.8123645, -4.8286362], [38.8122511, -4.8290348], [38.8120211, -4.8302372], [38.8118055, -4.8306584], [38.8114464, -4.8314616], [38.8112954, -4.831953], [38.8112801, -4.8322634], [38.8113451, -4.8328954], [38.8113774, -4.8335401], [38.8113874, -4.8339632], [38.8112927, -4.8343836], [38.8111085, -4.8352515], [38.8109536, -4.8359978], [38.8108758, -4.836736], [38.8108751, -4.8369807], [38.8109091, -4.8371573], [38.8109669, -4.8372839], [38.8111943, -4.8376221], [38.8114815, -4.8379606], [38.8118944, -4.8382716], [38.8123929, -4.8385875], [38.8127795, -4.8389424], [38.8131192, -4.8393183], [38.8135553, -4.8397481], [38.8138729, -4.8399453], [38.8149688, -4.8403334], [38.8159752, -4.8406899], [38.8162589, -4.8409454], [38.8164556, -4.8413069], [38.8161485, -4.8428339], [38.81598, -4.8432653], [38.8158105, -4.8436448], [38.8154757, -4.8439601], [38.8150611, -4.844282], [38.8143439, -4.8450164], [38.8139415, -4.8455423], [38.813859, -4.8458769], [38.8139598, -4.8464719], [38.8138723, -4.8467342], [38.8130656, -4.8477788], [38.8124406, -4.8483705], [38.8115002, -4.848625], [38.8110491, -4.8488035], [38.8106275, -4.8493207], [38.8092917, -4.8509576], [38.808355, -4.853154], [38.8081071, -4.8536445], [38.8078396, -4.854061], [38.8074768, -4.8546521], [38.807106, -4.8551323], [38.8068572, -4.8554672], [38.8066277, -4.8558666], [38.8061839, -4.8568088], [38.8057082, -4.8577855], [38.805432, -4.8586044], [38.8052531, -4.8590275], [38.8051944, -4.8592986], [38.8051459, -4.8598128], [38.8051244, -4.8599762], [38.8050852, -4.8602748], [38.8050402, -4.8608739], [38.8050224, -4.8611105], [38.8049018, -4.861395], [38.8047007, -4.8617771], [38.8046449, -4.8618896], [38.8043693, -4.8624452], [38.8040433, -4.8631379], [38.8039296, -4.8633797], [38.8039039, -4.8634343], [38.8037807, -4.8636827], [38.8037214, -4.8638365], [38.8036917, -4.8639135], [38.8037007, -4.8639712], [38.8037512, -4.8642947], [38.8038296, -4.864581], [38.8039255, -4.8647517], [38.8040595, -4.8648751], [38.8044097, -4.8650385], [38.8049608, -4.865361], [38.8054215, -4.8656867], [38.8055804, -4.8658234], [38.8056448, -4.8659036], [38.8056865, -4.8659927], [38.8057092, -4.8661681], [38.8056605, -4.8663599], [38.805626, -4.866426], [38.8054087, -4.8668926], [38.8053283, -4.8671356], [38.8053183, -4.8673464], [38.80541, -4.8680236], [38.8054429, -4.868175], [38.8055961, -4.8690791], [38.8057182, -4.8694403], [38.805763, -4.8695205], [38.8059909, -4.869928], [38.8063494, -4.8707123], [38.8066886, -4.8714543], [38.8071392, -4.8727266], [38.8075013, -4.8737492], [38.8078197, -4.8743425], [38.808395, -4.8751218], [38.8088435, -4.8759815], [38.809003, -4.8765338], [38.8092769, -4.8772382]]}, "properties": {"osm_id": 447033603, "highway": "tertiary", "name": null}}, {"type": "Feature", "geometry": {"type": "LineString", "coordinates": [[38.7644226, -4.8140207], [38.7643636, -4.8142773], [38.7643314, -4.8143254], [38.7642724, -4.8144162], [38.7642509, -4.8145338], [38.7642455, -4.8146247], [38.7642348, -4.814737], [38.7641973, -4.8148439], [38.764149, -4.8149561], [38.7641007, -4.8150096], [38.7639988, -4.8150898], [38.763929, -4.8151807], [38.7638271, -4.8152929], [38.7637037, -4.8153517], [38.7635589, -4.8154426], [38.7634462, -4.8155495], [38.7633819, -4.8156671], [38.7633282, -4.8157847], [38.7632048, -4.8158542], [38.7631351, -4.8158649], [38.7630546, -4.8158595], [38.7629742, -4.8157847], [38.7629259, -4.8156297], [38.7629152, -4.8155014], [38.7629098, -4.8151913], [38.7628991, -4.815047], [38.7628937, -4.8148813], [38.7628669, -4.8148065], [38.7628293, -4.8147209], [38.7628293, -4.8145873], [38.7628669, -4.8144857], [38.7629474, -4.8143628], [38.7630225, -4.8142131], [38.7630493, -4.8140741], [38.7630707, -4.8139458], [38.7630815, -4.8138229], [38.7630976, -4.8136251], [38.7631458, -4.8133792], [38.7631834, -4.8132616], [38.7632048, -4.8131814], [38.7632156, -4.8129943], [38.7632639, -4.8128767], [38.763339, -4.8127859], [38.7634462, -4.8127057], [38.7635267, -4.8126148], [38.7635321, -4.8124651], [38.7635213, -4.8123048], [38.7635428, -4.8121284], [38.7636125, -4.8119787], [38.7636662, -4.8118451], [38.7637681, -4.8117435], [38.76387, -4.8115618], [38.763929, -4.8114067], [38.7640632, -4.8112357], [38.764149, -4.8110753], [38.7642134, -4.8108455], [38.7642563, -4.8107118], [38.764267, -4.8104445], [38.764267, -4.8102735], [38.764267, -4.8101185], [38.7642777, -4.8099314], [38.7643367, -4.8098245], [38.7644655, -4.809771], [38.7646264, -4.8097229], [38.7647498, -4.8097015], [38.7649483, -4.8096748], [38.765179, -4.809616], [38.7652862, -4.8095732], [38.7654043, -4.8095158], [38.7654613, -4.8093756], [38.7654418, -4.8092418], [38.7653868, -4.809036], [38.7653701, -4.808845], [38.7653983, -4.8087261], [38.7654579, -4.8085843], [38.7654914, -4.8084172], [38.7655035, -4.8082809], [38.7655115, -4.8081941], [38.7655115, -4.8080711], [38.7655062, -4.8078947], [38.7655598, -4.807729], [38.7656135, -4.8075473], [38.7656832, -4.8072185], [38.7657717, -4.8069032], [38.7658388, -4.8066733], [38.7659112, -4.8064809], [38.7659622, -4.8062857], [38.766048, -4.8060986], [38.7661151, -4.8058687], [38.7661714, -4.8056389], [38.7662626, -4.8053502], [38.7663886, -4.8049653], [38.7664021, -4.8046713], [38.7663618, -4.8044068], [38.7663108, -4.8042009], [38.7663108, -4.8039443], [38.7662411, -4.8038], [38.7662116, -4.8037065], [38.7661928, -4.8035675], [38.7661713, -4.8033964], [38.7660802, -4.8032094], [38.765997, -4.8029928], [38.76593, -4.8028672], [38.7658441, -4.8027256], [38.7657878, -4.8025972], [38.7657208, -4.8025171], [38.765651, -4.8023968], [38.7656027, -4.80233], [38.7655706, -4.802191], [38.7655115, -4.8020467], [38.7654364, -4.8018115], [38.7653453, -4.8016297], [38.765195, -4.8014426], [38.765077, -4.8013571], [38.7649644, -4.8012822], [38.7649107, -4.8011914], [38.7648839, -4.801031], [38.7648678, -4.8008546], [38.7648678, -4.8007263], [38.7648142, -4.8005552], [38.7647444, -4.8003682], [38.7646693, -4.8001704], [38.7645942, -4.8000688], [38.764503, -4.800026], [38.7643099, -4.7999512], [38.764149, -4.7998443], [38.7640417, -4.7997481], [38.7639344, -4.7996144], [38.7638861, -4.7995235], [38.7636984, -4.7993846], [38.7636233, -4.7993578], [38.7635267, -4.7993418], [38.7633175, -4.7993953], [38.7631941, -4.7994754], [38.7630922, -4.7995075], [38.7629474, -4.7993365], [38.7629259, -4.7991707], [38.7629259, -4.7989997], [38.7629044, -4.7988981], [38.7629152, -4.7987645], [38.7628615, -4.7986469], [38.7628079, -4.7985186], [38.7627972, -4.7983796], [38.7627972, -4.7982513], [38.762824, -4.7979519], [38.7629366, -4.7975082], [38.7629634, -4.797241], [38.7629688, -4.7970432], [38.7629742, -4.7968294], [38.7629795, -4.7966155], [38.7629795, -4.7964605], [38.7629903, -4.7962681], [38.7630117, -4.795958], [38.7630386, -4.7957549], [38.7631029, -4.7954288], [38.7631405, -4.7951989], [38.7631888, -4.7950452], [38.7631995, -4.7948889]]}, "properties": {"osm_id": 449426925, "highway": "unclassified", "name": null}}, {"type": "Feature", "geometry": {"type": "LineString", "coordinates": [[38.8128424, -4.8234346], [38.8131694, -4.8233507]]}, "properties": {"osm_id": 449426928, "highway": "service", "name": null}}, {"type": "Feature", "geometry": {"type": "LineString", "coordinates": [[38.7776423, -4.7822102], [38.7773401, -4.7823372], [38.7771201, -4.7824334], [38.7769324, -4.7825403], [38.7768197, -4.782654], [38.7767191, -4.7826664], [38.7764818, -4.7826205], [38.7762726, -4.7825991], [38.7761063, -4.7825778], [38.7759507, -4.7825296], [38.7757737, -4.7824388], [38.7756932, -4.7823907], [38.7753284, -4.782257], [38.7751139, -4.7822624], [38.7749315, -4.7822891], [38.7747544, -4.7823212], [38.7746042, -4.782396], [38.7744916, -4.782519], [38.7744111, -4.7826526], [38.7742716, -4.7827649], [38.7740893, -4.7828878], [38.7739176, -4.7829787], [38.7737352, -4.7830535], [38.7734723, -4.7831337], [38.773011, -4.7833529], [38.7725658, -4.7834865], [38.7723941, -4.7835186], [38.7718147, -4.7837271], [38.7714231, -4.7840104], [38.7712998, -4.784112], [38.7712193, -4.7844434], [38.771171, -4.7846679], [38.7710852, -4.7849513], [38.7710315, -4.7851223], [38.7709403, -4.7853682], [38.7708652, -4.7855339], [38.7707794, -4.7856997], [38.770715, -4.7858547], [38.7706399, -4.7860792], [38.7704575, -4.7863251], [38.7704093, -4.7864267], [38.7703556, -4.7865871], [38.7703181, -4.7867528], [38.7702805, -4.7869452], [38.7702644, -4.7871056], [38.7702054, -4.7872927], [38.770184, -4.787437], [38.7701786, -4.7875814], [38.7701571, -4.7877471], [38.7701035, -4.7878754], [38.7700069, -4.7879716], [38.7698138, -4.788132], [38.7694383, -4.7882496], [38.7692076, -4.7883565], [38.7690843, -4.7884474], [38.7689931, -4.7885489], [38.768918, -4.7886772], [38.7688053, -4.7888643], [38.7686444, -4.7890354], [38.7684781, -4.7892278], [38.7683225, -4.7894791], [38.7682474, -4.7896662], [38.7681347, -4.7898372], [38.767888, -4.7902007], [38.7677431, -4.790436], [38.7676037, -4.7906284], [38.7673301, -4.7909812], [38.767196, -4.7911576], [38.7671101, -4.7913073], [38.7670297, -4.7914837], [38.7669707, -4.7916441], [38.7669009, -4.7918044], [38.7668151, -4.7919702], [38.7667078, -4.7921733], [38.7666595, -4.7923657], [38.7666434, -4.792494], [38.7666113, -4.792617], [38.7665683, -4.7927667], [38.766343, -4.7931462], [38.7662304, -4.7932638], [38.7661231, -4.7933173], [38.7659783, -4.7933547], [38.7658227, -4.7933654], [38.7656349, -4.79336], [38.7653721, -4.7933226], [38.7651575, -4.7933066], [38.7649966, -4.7933066], [38.7648303, -4.7933761], [38.7646747, -4.7934776], [38.7645406, -4.7935739], [38.7644709, -4.7936647], [38.7643421, -4.7937449], [38.7642241, -4.7938251], [38.7641222, -4.7939427], [38.7640471, -4.7941191], [38.7639666, -4.794226], [38.7638861, -4.7943329], [38.7638486, -4.7944826], [38.7638164, -4.7946323], [38.7637788, -4.7947552], [38.7637037, -4.7948622], [38.763575, -4.7948889], [38.7633551, -4.7948889], [38.7631995, -4.7948889], [38.763001, -4.794921], [38.7628886, -4.795031], [38.7628211, -4.7951814], [38.762729, -4.795316], [38.7626791, -4.7954571], [38.7626362, -4.7955451], [38.7625772, -4.7957175], [38.7624418, -4.7958484], [38.7623304, -4.7958511], [38.7622071, -4.7958885], [38.7620783, -4.7959741], [38.7620193, -4.7960596], [38.7619549, -4.7961718], [38.7618477, -4.7962574], [38.7617243, -4.7963322], [38.7615794, -4.796391], [38.761456, -4.7964391], [38.7613058, -4.7964872], [38.7611235, -4.7965514], [38.7608552, -4.7966797], [38.7607533, -4.7967599], [38.7606192, -4.7968828], [38.7605119, -4.7970646], [38.7604368, -4.7971929], [38.7603242, -4.7973051], [38.7602115, -4.7974013], [38.7601257, -4.7974869], [38.7601149, -4.7975617], [38.7601149, -4.7976259], [38.7600667, -4.79769], [38.7599272, -4.7977916], [38.759557, -4.7980428], [38.7590742, -4.7982566], [38.758865, -4.7983261], [38.7586183, -4.7983903], [38.758393, -4.7984812], [38.7582589, -4.7985881], [38.7581301, -4.7986789], [38.757996, -4.7989783], [38.7578565, -4.7993899], [38.7577653, -4.7995396], [38.7576473, -4.7997], [38.7576216, -4.799878], [38.7576011, -4.8000431], [38.7575358, -4.8001657], [38.7574772, -4.8003163], [38.7574156, -4.8004968], [38.7573482, -4.8006145], [38.7572933, -4.8006408], [38.7572343, -4.8006996], [38.7571591, -4.800721], [38.7570572, -4.800721], [38.756966, -4.8007049], [38.7568641, -4.800582], [38.7567461, -4.8004804], [38.7566012, -4.8003895], [38.7564725, -4.8003307], [38.7562633, -4.8002719], [38.7561238, -4.8002773], [38.7560567, -4.8003698], [38.7558663, -4.8004697], [38.7557483, -4.8006729], [38.7556088, -4.8007317], [38.7554962, -4.8007691], [38.7553406, -4.8008706], [38.7552601, -4.8009187], [38.7551958, -4.8009989], [38.7551689, -4.8011165], [38.7550885, -4.8012074], [38.755067, -4.8012929], [38.7550509, -4.8013892], [38.7549597, -4.8014693], [38.7548954, -4.8015656], [38.7548954, -4.8017313], [38.7549436, -4.8021269], [38.7549329, -4.8022551], [38.7549329, -4.8023834], [38.7549758, -4.8025492], [38.7549919, -4.8026935], [38.7550027, -4.8028806], [38.7550027, -4.8030303], [38.7550295, -4.8031425], [38.7551099, -4.8032922], [38.7552065, -4.8033724], [38.7553744, -4.8034938], [38.7553941, -4.8035392], [38.7553192, -4.8036717], [38.7552494, -4.8037786], [38.7551636, -4.8038535], [38.7550558, -4.8039595], [38.7549278, -4.8040193], [38.7548176, -4.8040236], [38.7546862, -4.8040673], [38.7545421, -4.804124], [38.7545156, -4.8042634], [38.7544807, -4.8043415], [38.7543697, -4.8044055], [38.7543106, -4.8044468], [38.7541962, -4.8045584], [38.7540824, -4.8046666], [38.7539418, -4.8047381], [38.753801, -4.8047996], [38.7536615, -4.8049119], [38.7535596, -4.8050242], [38.7533611, -4.8052861], [38.7533504, -4.8055053], [38.7533611, -4.8057779], [38.7533343, -4.8060772], [38.7533504, -4.8062857], [38.7533994, -4.8064767], [38.7534148, -4.8065369], [38.7534362, -4.8067401], [38.7535006, -4.8069806], [38.7535596, -4.8071677], [38.7536133, -4.8073174], [38.7536347, -4.8074724], [38.7536455, -4.8076328], [38.753683, -4.8077985], [38.753742, -4.8079535], [38.753801, -4.8081353], [38.7538171, -4.8083437], [38.753801, -4.8085255], [38.7537635, -4.8087179], [38.7537367, -4.8089264], [38.7537206, -4.8091563], [38.7537206, -4.8093808], [38.753742, -4.8095839], [38.7538064, -4.8098726], [38.7538278, -4.810065], [38.753919, -4.8102521], [38.7539941, -4.8104125], [38.7540639, -4.8105621], [38.7541175, -4.8108027], [38.754139, -4.8111074], [38.7541283, -4.8113212], [38.7542248, -4.8115831], [38.7543321, -4.8117168], [38.7544448, -4.8119039], [38.7545145, -4.8120803], [38.7545359, -4.8122567], [38.7545681, -4.8124491], [38.7545681, -4.8126095], [38.7545628, -4.8128233], [38.7546271, -4.8129997], [38.7546915, -4.8131173], [38.754713, -4.813267], [38.7547452, -4.813438], [38.7547934, -4.8136465], [38.754772, -4.8139138], [38.7546862, -4.8140848], [38.7545681, -4.8142078], [38.7544233, -4.814288], [38.7542194, -4.8143735], [38.7540049, -4.8145018], [38.7538171, -4.8146461], [38.7537045, -4.814769], [38.7535757, -4.8149027], [38.7534523, -4.8150524], [38.7533236, -4.8152448], [38.7532431, -4.8155067], [38.7531627, -4.8156778], [38.7530125, -4.8158969], [38.7528837, -4.8160145], [38.752696, -4.8160894], [38.752535, -4.8161803], [38.7521756, -4.8162818], [38.7520737, -4.8163941], [38.7519235, -4.8165277], [38.7517089, -4.8166507], [38.7515426, -4.8167522], [38.7513602, -4.8168591], [38.7510759, -4.8169981], [38.7508828, -4.817073], [38.7507218, -4.8170836], [38.7505287, -4.8171959], [38.7504, -4.8173082], [38.750239, -4.8173937], [38.7501103, -4.8174899], [38.749944, -4.8175434], [38.7496972, -4.8176182], [38.7495363, -4.8176396], [38.74937, -4.8176235], [38.749193, -4.8176342], [38.7490589, -4.8177251], [38.7489462, -4.8177892], [38.7487424, -4.8178106], [38.7485814, -4.8177999], [38.7483776, -4.8177465], [38.7482918, -4.8177198], [38.747986, -4.8177144], [38.7478412, -4.8176503], [38.74775, -4.8176182], [38.7474817, -4.8176556], [38.7473476, -4.8176128], [38.7471867, -4.8174899], [38.7470687, -4.8174097], [38.746897, -4.8173456], [38.74672, -4.8173456], [38.7465269, -4.8173402], [38.7463928, -4.8173188], [38.7462855, -4.8173242]]}, "properties": {"osm_id": 449426936, "highway": "unclassified", "name": null}}]}