{"type": "FeatureCollection", "features": [{"type": "Feature", "geometry": {"type": "Point", "coordinates": [38.76645958682394, -4.851536444308309]}, "properties": {"osm_id": 1119875932, "kind": "veg_centroid"}}, {"type": "Feature", "geometry": {"type": "Point", "coordinates": [38.76322271568615, -4.8699488653344805]}, "properties": {"osm_id": 1119875932, "kind": "veg_sample"}}, {"type": "Feature", "geometry": {"type": "Point", "coordinates": [38.78138201487894, -4.835922646278497]}, "properties": {"osm_id": 1119875932, "kind": "veg_sample"}}, {"type": "Feature", "geometry": {"type": "Point", "coordinates": [38.74805326396309, -4.855084129184173]}, "properties": {"osm_id": 1119875932, "kind": "veg_sample"}}, {"type": "Feature", "geometry": {"type": "Point", "coordinates": [38.77499051962709, -4.8519139406967815]}, "properties": {"osm_id": 1119875932, "kind": "veg_sample"}}, {"type": "Feature", "geometry": {"type": "Point", "coordinates": [38.780469835300174, -4.857059832515518]}, "properties": {"osm_id": 1119875932, "kind": "veg_sample"}}, {"type": "Feature", "geometry": {"type": "Point", "coordinates": [38.750478058084155, -4.87374745204163]}, "properties": {"osm_id": 1119875932, "kind": "veg_sample"}}, {"type": "Feature", "geometry": {"type": "Point", "coordinates": [38.78184228023841, -4.872979691633167]}, "properties": {"osm_id": 1119875932, "kind": "veg_sample"}}, {"type": "Feature", "geometry": {"type": "Point", "coordinates": [38.7786934895766, -4.845392882868205]}, "properties": {"osm_id": 1119875932, "kind": "veg_sample"}}, {"type": "Feature", "geometry": {"type": "Point", "coordinates": [38.77123969159715, -4.859996043926042]}, "properties": {"osm_id": 1119875932, "kind": "veg_sample"}}, {"type": "Feature", "geometry": {"type": "Point", "coordinates": [38.765881235693215, -4.839007524052664]}, "properties": {"osm_id": 1119875932, "kind": "veg_sample"}}, {"type": "Feature", "geometry": {"type": "Point", "coordinates": [38.770843978352495, -4.881441824349257]}, "properties": {"osm_id": 1119875932, "kind": "veg_sample"}}, {"type": "Feature", "geometry": {"type": "Point", "coordinates": [38.76761399600609, -4.852520148536765]}, "properties": {"osm_id": 1119875932, "kind": "veg_sample"}}, {"type": "Feature", "geometry": {"type": "Point", "coordinates": [38.77731978626841, -4.866158478457701]}, "properties": {"osm_id": 1119875932, "kind": "veg_sample"}}, {"type": "Feature", "geometry": {"type": "Point", "coordinates": [38.777325288312895, -4.829400722293558]}, "properties": {"osm_id": 1119875932, "kind": "veg_sample"}}, {"type": "Feature", "geometry": {"type": "Point", "coordinates": [38.750662646452334, -4.851287964906698]}, "properties": {"osm_id": 1119875932, "kind": "veg_sample"}}, {"type": "Feature", "geometry": {"type": "Point", "coordinates": [38.774765458723934, -4.877536133703558]}, "properties": {"osm_id": 1119875932, "kind": "veg_sample"}}, {"type": "Feature", "geometry": {"type": "Point", "coordinates": [38.77863234433022, -4.872969597157941]}, "properties": {"osm_id": 1119875932, "kind": "veg_sample"}}, {"type": "Feature", "geometry": {"type": "Point", "coordinates": [38.76833494898095, -4.875399210842579]}, "properties": {"osm_id": 1119875932, "kind": "veg_sample"}}, {"type": "Feature", "geometry": {"type": "Point", "coordinates": [38.76396225073292, -4.843167004562062]}, "properties": {"osm_id": 1119875932, "kind": "veg_sample"}}, {"type": "Feature", "geometry": {"type": "Point", "coordinates": [38.76386808135455, -4.837597949036173]}, "properties": {"osm_id": 1119875932, "kind": "veg_sample"}}, {"type": "Feature", "geometry": {"type": "Point", "coordinates": [38.773762739765644, -4.820448629718366]}, "properties": {"osm_id": 1119875932, "kind": "veg_sample"}}, {"type": "Feature", "geometry": {"type": "Point", "coordinates": [38.75051789386278, -4.883340903976947]}, "properties": {"osm_id": 1119875932, "kind": "veg_sample"}}, {"type": "Feature", "geometry": {"type": "Point", "coordinates": [38.76505871625528, -4.857024719396828]}, "properties": {"osm_id": 1119875932, "kind": "veg_sample"}}, {"type": "Feature", "geometry": {"type": "Point", "coordinates": [38.76982969759371, -4.852544786678539]}, "properties": {"osm_id": 1119875932, "kind": "veg_sample"}}, {"type": "Feature", "geometry": {"type": "Point", "coordinates": [38.764804007053954, -4.861501098329592]}, "properties": {"osm_id": 1119875932, "kind": "veg_sample"}}, {"type": "Feature", "geometry": {"type": "Point", "coordinates": [38.752653662050896, -4.893799002949731]}, "properties": {"osm_id": 1119875932, "kind": "veg_sample"}}, {"type": "Feature", "geometry": {"type": "Point", "coordinates": [38.78606320567914, -4.8594260871773365]}, "properties": {"osm_id": 1119875932, "kind": "veg_sample"}}, {"type": "Feature", "geometry": {"type": "Point", "coordinates": [38.75607803546135, -4.881678979001834]}, "properties": {"osm_id": 1119875932, "kind": "veg_sample"}}, {"type": "Feature", "geometry": {"type": "Point", "coordinates": [38.749262794364576, -4.851952102046498]}, "properties": {"osm_id": 1119875932, "kind": "veg_sample"}}, {"type": "Feature", "geometry": {"type": "Point", "coordinates": [38.77427555616477, -4.846399458245518]}, "properties": {"osm_id": 1119875932, "kind": "veg_sample"}}, {"type": "Feature", "geometry": {"type": "Point", "coordinates": [38.77987494234494, -4.814482926060333]}, "properties": {"osm_id": 1119875932, "kind": "veg_sample"}}, {"type": "Feature", "geometry": {"type": "Point", "coordinates": [38.78021750846907, -4.825021812850156]}, "properties": {"osm_id": 1119875932, "kind": "veg_sample"}}, {"type": "Feature", "geometry": {"type": "Point", "coordinates": [38.74863117912545, -4.856418657424381]}, "properties": {"osm_id": 1119875932, "kind": "veg_sample"}}, {"type": "Feature", "geometry": {"type": "Point", "coordinates": [38.76024207419012, -4.836556408362917]}, "properties": {"osm_id": 1119875932, "kind": "veg_sample"}}, {"type": "Feature", "geometry": {"type": "Point", "coordinates": [38.771154106793645, -4.874980340657604]}, "properties": {"osm_id": 1119875932, "kind": "veg_sample"}}, {"type": "Feature", "geometry": {"type": "Point", "coordinates": [38.76096187010983, -4.888387724940833]}, "properties": {"osm_id": 1119875932, "kind": "veg_sample"}}, {"type": "Feature", "geometry": {"type": "Point", "coordinates": [38.77275456977719, -4.842577635119615]}, "properties": {"osm_id": 1119875932, "kind": "veg_sample"}}, {"type": "Feature", "geometry": {"type": "Point", "coordinates": [38.7571544746621, -4.843298144754686]}, "properties": {"osm_id": 1119875932, "kind": "veg_sample"}}, {"type": "Feature", "geometry": {"type": "Point", "coordinates": [38.77513406476936, -4.870568114746848]}, "properties": {"osm_id": 1119875932, "kind": "veg_sample"}}, {"type": "Feature", "geometry": {"type": "Point", "coordinates": [38.76479466680978, -4.84318235807302]}, "properties": {"osm_id": 1119875932, "kind": "veg_sample"}}]}